{
  "type": "FeatureCollection",
  "features": [
    {
      "type": "Feature",
      "id": "way/994947395",
      "properties": {
        "addr:city": "Château-d'Oex",
        "addr:housenumber": "6",
        "addr:postcode": "1660",
        "addr:street": "Chemin de l'Ancien Comté",
        "building": "apartments",
        "building:flats": "12",
        "building:levels": "3",
        "owner": "Société coopérative d'habitation Nouveau Comté",
        "owner:type": "cooperative",
        "owner:wikidata": "Q133460349",
        "roof:levels": "1",
        "roof:shape": "gabled",
        "start_date": "2021-09",
        "id": "way/994947395",
        "start_date_parsed": "2021-09-01T00:00:00.000Z",
        "owner:website": "https://chnc.ch/",
        "owner:start_date": "2014-05-24T00:00:00Z",
        "owner:swiss_business_uid": "CHE-106.400.373"
      },
      "geometry": {
        "type": "Polygon",
        "coordinates": [
          [
            [
              7.1263668,
              46.4733176
            ],
            [
              7.1262338,
              46.4732267
            ],
            [
              7.126437,
              46.4730652
            ],
            [
              7.126521,
              46.4731221
            ],
            [
              7.1265605,
              46.4730965
            ],
            [
              7.1266483,
              46.4731649
            ],
            [
              7.1265208,
              46.4732659
            ],
            [
              7.126478,
              46.4732389
            ],
            [
              7.1263668,
              46.4733176
            ]
          ]
        ]
      }
    }
  ]
}