{
  "type": "FeatureCollection",
  "features": [
    {
      "type": "Feature",
      "id": "way/136061380",
      "properties": {
        "addr:city": "Charmoille",
        "addr:housenumber": "88b",
        "addr:postcode": "2947",
        "addr:street": "Gasse du Moulin",
        "building": "apartments",
        "last_renovation": "2026",
        "layer": "1",
        "owner": "Société coopérative d'habitation TerrAjoie",
        "owner:type": "cooperative",
        "owner:wikidata": "Q133285952",
        "id": "way/136061380",
        "last_renovation_parsed": "2026-01-01T00:00:00.000Z",
        "owner:website": "https://terrajoie.ch/",
        "owner:swiss_business_uid": "CHE-139.513.475"
      },
      "geometry": {
        "type": "Polygon",
        "coordinates": [
          [
            [
              7.2054104,
              47.4225165
            ],
            [
              7.2054232,
              47.4223627
            ],
            [
              7.2056977,
              47.4223732
            ],
            [
              7.205685,
              47.4225269
            ],
            [
              7.2054104,
              47.4225165
            ]
          ]
        ]
      }
    }
  ]
}