{
  "type": "FeatureCollection",
  "features": [
    {
      "type": "Feature",
      "id": "way/49404993",
      "properties": {
        "building": "apartments",
        "owner": "Coopérative d’Habitation de la Tourbière",
        "owner:type": "cooperative",
        "owner:wikidata": "Q133461288",
        "addr": [
          {
            "addr:city": "La Chaux-de-Fonds",
            "addr:postcode": "2300",
            "addr:street": "Rue de Beauregard",
            "addr:housenumber": "11"
          }
        ],
        "id": "way/49404993",
        "owner:website": "https://tourbiere.ch/",
        "owner:swiss_business_uid": "CHE-251.947.336"
      },
      "geometry": {
        "type": "Polygon",
        "coordinates": [
          [
            [
              6.8241449,
              47.1070823
            ],
            [
              6.8240759,
              47.1070282
            ],
            [
              6.8240565,
              47.107013
            ],
            [
              6.8239379,
              47.1069199
            ],
            [
              6.8239433,
              47.1069168
            ],
            [
              6.8239525,
              47.1069241
            ],
            [
              6.8239629,
              47.1069179
            ],
            [
              6.823958,
              47.1069141
            ],
            [
              6.8239986,
              47.1068907
            ],
            [
              6.8240032,
              47.1068944
            ],
            [
              6.8240423,
              47.1068718
            ],
            [
              6.824047,
              47.1068757
            ],
            [
              6.8240346,
              47.106883
            ],
            [
              6.8240828,
              47.1069205
            ],
            [
              6.824071,
              47.1069278
            ],
            [
              6.8241174,
              47.1069642
            ],
            [
              6.8241681,
              47.1069342
            ],
            [
              6.8242644,
              47.1070094
            ],
            [
              6.8242137,
              47.1070395
            ],
            [
              6.8241491,
              47.1070797
            ],
            [
              6.8241449,
              47.1070823
            ]
          ]
        ]
      }
    }
  ]
}