{
  "type": "FeatureCollection",
  "features": [
    {
      "type": "Feature",
      "id": "way/1044468903",
      "properties": {
        "building": "apartments",
        "name": "Sonnenfänger",
        "owner": "Neue Wohnbaugenossenschaft Basel;Wohngenossenschaft Bündnerstrasse",
        "owner:type": "cooperative",
        "owner:wikidata": "Q140616192;Q140616269",
        "wikidata": "Q140615918",
        "addr": [
          {
            "addr:city": "Basel",
            "addr:postcode": "4055",
            "addr:street": "Burgfelderstrasse",
            "addr:housenumber": "226"
          },
          {
            "addr:city": "Basel",
            "addr:postcode": "4055",
            "addr:street": "Burgfelderstrasse",
            "addr:housenumber": "240"
          },
          {
            "addr:city": "Basel",
            "addr:postcode": "4055",
            "addr:street": "Burgfelderstrasse",
            "addr:housenumber": "238"
          },
          {
            "addr:city": "Basel",
            "addr:postcode": "4055",
            "addr:street": "Burgfelderstrasse",
            "addr:housenumber": "236"
          },
          {
            "addr:city": "Basel",
            "addr:postcode": "4055",
            "addr:street": "Burgfelderstrasse",
            "addr:housenumber": "234"
          },
          {
            "addr:city": "Basel",
            "addr:postcode": "4055",
            "addr:street": "Burgfelderstrasse",
            "addr:housenumber": "232"
          },
          {
            "addr:city": "Basel",
            "addr:postcode": "4055",
            "addr:street": "Burgfelderstrasse",
            "addr:housenumber": "230"
          },
          {
            "addr:city": "Basel",
            "addr:postcode": "4055",
            "addr:street": "Burgfelderstrasse",
            "addr:housenumber": "228"
          },
          {
            "addr:city": "Basel",
            "addr:postcode": "4055",
            "addr:street": "Burgfelderstrasse",
            "addr:housenumber": "224"
          },
          {
            "addr:city": "Basel",
            "addr:postcode": "4055",
            "addr:street": "Burgfelderstrasse",
            "addr:housenumber": "222"
          },
          {
            "addr:city": "Basel",
            "addr:postcode": "4055",
            "addr:street": "Burgfelderstrasse",
            "addr:housenumber": "220"
          },
          {
            "addr:city": "Basel",
            "addr:postcode": "4055",
            "addr:street": "Burgfelderstrasse",
            "addr:housenumber": "218"
          }
        ],
        "id": "way/1044468903"
      },
      "geometry": {
        "type": "Polygon",
        "coordinates": [
          [
            [
              7.5623135,
              47.5680185
            ],
            [
              7.5623616,
              47.568001
            ],
            [
              7.5624026,
              47.567986
            ],
            [
              7.5624102,
              47.5679955
            ],
            [
              7.5625041,
              47.5679612
            ],
            [
              7.5624673,
              47.5679154
            ],
            [
              7.5625167,
              47.5678973
            ],
            [
              7.5625594,
              47.5678817
            ],
            [
              7.5625695,
              47.5678944
            ],
            [
              7.562666,
              47.5678591
            ],
            [
              7.5626301,
              47.5678143
            ],
            [
              7.5626807,
              47.5677958
            ],
            [
              7.5627172,
              47.5677825
            ],
            [
              7.5627274,
              47.5677952
            ],
            [
              7.5627847,
              47.5677742
            ],
            [
              7.5627478,
              47.5677282
            ],
            [
              7.5628036,
              47.5677078
            ],
            [
              7.5628366,
              47.5676958
            ],
            [
              7.562851,
              47.5677137
            ],
            [
              7.5629611,
              47.5676734
            ],
            [
              7.5630162,
              47.567742
            ],
            [
              7.5630335,
              47.5677636
            ],
            [
              7.562974,
              47.5677854
            ],
            [
              7.5629919,
              47.5678076
            ],
            [
              7.5629448,
              47.5678248
            ],
            [
              7.5629813,
              47.5678704
            ],
            [
              7.5628111,
              47.5679326
            ],
            [
              7.5628404,
              47.5679691
            ],
            [
              7.562655,
              47.5680368
            ],
            [
              7.5626768,
              47.568064
            ],
            [
              7.5626049,
              47.5680903
            ],
            [
              7.5626268,
              47.5681175
            ],
            [
              7.5623625,
              47.5682141
            ],
            [
              7.5623805,
              47.5682366
            ],
            [
              7.5622761,
              47.5682747
            ],
            [
              7.5622571,
              47.5682511
            ],
            [
              7.5621678,
              47.5682837
            ],
            [
              7.5622041,
              47.5683289
            ],
            [
              7.5621103,
              47.5683632
            ],
            [
              7.5621019,
              47.5683527
            ],
            [
              7.5620106,
              47.5683861
            ],
            [
              7.56206,
              47.5684476
            ],
            [
              7.5619666,
              47.5684817
            ],
            [
              7.5619434,
              47.5684528
            ],
            [
              7.5618502,
              47.5684868
            ],
            [
              7.5618879,
              47.5685337
            ],
            [
              7.5617994,
              47.568566
            ],
            [
              7.561788,
              47.5685518
            ],
            [
              7.561692,
              47.5685869
            ],
            [
              7.5617307,
              47.568635
            ],
            [
              7.5616424,
              47.5686673
            ],
            [
              7.5616324,
              47.5686549
            ],
            [
              7.5615373,
              47.5686897
            ],
            [
              7.5615746,
              47.5687361
            ],
            [
              7.5614847,
              47.568769
            ],
            [
              7.5614775,
              47.56876
            ],
            [
              7.5613798,
              47.5687957
            ],
            [
              7.5614133,
              47.5688373
            ],
            [
              7.5613276,
              47.5688686
            ],
            [
              7.561317,
              47.5688554
            ],
            [
              7.5612381,
              47.5688842
            ],
            [
              7.5612481,
              47.5688967
            ],
            [
              7.5611574,
              47.5689298
            ],
            [
              7.5611385,
              47.5689063
            ],
            [
              7.5610268,
              47.5689471
            ],
            [
              7.5609762,
              47.568884
            ],
            [
              7.5610899,
              47.5688425
            ],
            [
              7.5610766,
              47.5688259
            ],
            [
              7.5611113,
              47.5688132
            ],
            [
              7.5611856,
              47.5687861
            ],
            [
              7.5611953,
              47.5687981
            ],
            [
              7.5612529,
              47.5687771
            ],
            [
              7.5612151,
              47.56873
            ],
            [
              7.561271,
              47.5687096
            ],
            [
              7.5613062,
              47.5686967
            ],
            [
              7.5613167,
              47.5687097
            ],
            [
              7.5614111,
              47.5686752
            ],
            [
              7.5613736,
              47.5686284
            ],
            [
              7.5614289,
              47.5686082
            ],
            [
              7.5614636,
              47.5685955
            ],
            [
              7.5614734,
              47.5686076
            ],
            [
              7.5615695,
              47.5685725
            ],
            [
              7.5615333,
              47.5685274
            ],
            [
              7.5615851,
              47.5685084
            ],
            [
              7.5616189,
              47.5684961
            ],
            [
              7.561628,
              47.5685074
            ],
            [
              7.5617255,
              47.5684717
            ],
            [
              7.5616914,
              47.5684292
            ],
            [
              7.5617396,
              47.5684116
            ],
            [
              7.5617779,
              47.5683976
            ],
            [
              7.5617842,
              47.5684055
            ],
            [
              7.5618829,
              47.5683695
            ],
            [
              7.5618463,
              47.5683239
            ],
            [
              7.561892,
              47.5683072
            ],
            [
              7.5619369,
              47.5682908
            ],
            [
              7.5619426,
              47.5682978
            ],
            [
              7.5620327,
              47.5682649
            ],
            [
              7.5619965,
              47.5682199
            ],
            [
              7.5620499,
              47.5682004
            ],
            [
              7.5620883,
              47.5681864
            ],
            [
              7.562098,
              47.5681985
            ],
            [
              7.5621922,
              47.5681641
            ],
            [
              7.5621558,
              47.5681188
            ],
            [
              7.5622059,
              47.5681005
            ],
            [
              7.5622415,
              47.5680874
            ],
            [
              7.5622498,
              47.5680977
            ],
            [
              7.5623482,
              47.5680617
            ],
            [
              7.5623135,
              47.5680185
            ]
          ]
        ]
      }
    }
  ]
}